CSS (TIANHE)            
1 48274U 21035A   26187.49735435  .00011627  00000+0  15480-3 0  9997
2 48274  41.4676 204.5488 0002947 273.1350  86.9151 15.58009548296180
