{"fetched_at":"2026-07-07T07:58:19.692Z","source":"https://celestrak.org/NORAD/elements/gp.php?GROUP=stations&FORMAT=JSON","constellation":"tiangong","records":[{"OBJECT_NAME":"CSS (TIANHE)","OBJECT_ID":"2021-035A","EPOCH":"2026-07-06T11:56:11.415840","CLASSIFICATION_TYPE":"U","MEAN_MOTION":15.58009548,"ECCENTRICITY":0.0002947,"INCLINATION":41.4676,"RA_OF_ASC_NODE":204.5488,"ARG_OF_PERICENTER":273.135,"MEAN_ANOMALY":86.9151,"EPHEMERIS_TYPE":0,"NORAD_CAT_ID":48274,"ELEMENT_SET_NO":999,"REV_AT_EPOCH":29618,"BSTAR":0.0001548,"MEAN_MOTION_DOT":0.00011627,"MEAN_MOTION_DDOT":0}]}
